{"type": "FeatureCollection", "features": [ {"type": "Feature", "properties": {"norad_id": 44476, "name": "INTELSAT 39 (IS-39)", "group": "intelsat", "lat": 0.02421483387739506, "lon": 107.6472861160836, "alt_km": 35783.36493768449, "timestamp": "2025-12-10T21:43:21.754579+00:00", "meta": {"OBJECT_NAME": "INTELSAT 39 (IS-39)", "OBJECT_ID": "2019-049B", "EPOCH": "2025-12-10T15:08:36.189888", "MEAN_MOTION": 1.00270491, "ECCENTRICITY": 9.698e-05, "INCLINATION": 0.018, "RA_OF_ASC_NODE": 324.9405, "ARG_OF_PERICENTER": 184.1246, "MEAN_ANOMALY": 219.6342, "EPHEMERIS_TYPE": 0, "CLASSIFICATION_TYPE": "U", "NORAD_CAT_ID": 44476, "ELEMENT_SET_NO": 999, "REV_AT_EPOCH": 2323, "BSTAR": 0, "MEAN_MOTION_DOT": 3.8e-07, "MEAN_MOTION_DDOT": 0}, "tle": {"line1": "1 44476U 19049B   25344.63097442  .00000038  00000+0  00000+0 0  9990", "line2": "2 44476   0.0180 324.9405 0000969 184.1246 219.6342  1.00270491 23234"}}, "geometry": {"type": "Point", "coordinates": [107.6472861160836, 0.02421483387739506]}}, {"type": "Feature", "properties": {"norad_id": 46114, "name": "GALAXY 30 (G-30)", "group": "intelsat", "lat": -0.02659741764111249, "lon": -79.28136669625769, "alt_km": 35776.72950401415, "timestamp": "2025-12-10T21:43:21.754591+00:00", "meta": {"OBJECT_NAME": "GALAXY 30 (G-30)", "OBJECT_ID": "2020-056C", "EPOCH": "2025-12-10T10:25:19.291584", "MEAN_MOTION": 1.00272067, "ECCENTRICITY": 0.00023436, "INCLINATION": 0.017, "RA_OF_ASC_NODE": 325.7585, "ARG_OF_PERICENTER": 293.7361, "MEAN_ANOMALY": 211.2428, "EPHEMERIS_TYPE": 0, "CLASSIFICATION_TYPE": "U", "NORAD_CAT_ID": 46114, "ELEMENT_SET_NO": 999, "REV_AT_EPOCH": 1940, "BSTAR": 0, "MEAN_MOTION_DOT": 4.1e-07, "MEAN_MOTION_DDOT": 0}, "tle": {"line1": "1 46114U 20056C   25344.43425106  .00000041  00000+0  00000+0 0  9995", "line2": "2 46114   0.0170 325.7585 0002343 293.7361 211.2428  1.00272067 19403"}}, "geometry": {"type": "Point", "coordinates": [-79.28136669625769, -0.02659741764111249]}}, {"type": "Feature", "properties": {"norad_id": 54026, "name": "GALAXY 33 (G-33)", "group": "intelsat", "lat": -0.02069312082594239, "lon": -87.27045240856549, "alt_km": 35777.27929587182, "timestamp": "2025-12-10T21:43:21.754603+00:00", "meta": {"OBJECT_NAME": "GALAXY 33 (G-33)", "OBJECT_ID": "2022-128A", "EPOCH": "2025-12-10T11:08:38.645088", "MEAN_MOTION": 1.0027273, "ECCENTRICITY": 0.00021797, "INCLINATION": 0.0108, "RA_OF_ASC_NODE": 311.8948, "ARG_OF_PERICENTER": 297.9463, "MEAN_ANOMALY": 223.7665, "EPHEMERIS_TYPE": 0, "CLASSIFICATION_TYPE": "U", "NORAD_CAT_ID": 54026, "ELEMENT_SET_NO": 999, "REV_AT_EPOCH": 1185, "BSTAR": 0, "MEAN_MOTION_DOT": 8.3e-07, "MEAN_MOTION_DDOT": 0}, "tle": {"line1": "1 54026U 22128A   25344.46433617  .00000083  00000+0  00000+0 0  9993", "line2": "2 54026   0.0108 311.8948 0002179 297.9463 223.7665  1.00272730 11859"}}, "geometry": {"type": "Point", "coordinates": [-87.27045240856549, -0.02069312082594239]}}, {"type": "Feature", "properties": {"norad_id": 54027, "name": "GALAXY 34 (G-34)", "group": "intelsat", "lat": -0.03465426353620542, "lon": -83.21277172394115, "alt_km": 35781.321697579166, "timestamp": "2025-12-10T21:43:21.754614+00:00", "meta": {"OBJECT_NAME": "GALAXY 34 (G-34)", "OBJECT_ID": "2022-128B", "EPOCH": "2025-12-10T09:47:38.588064", "MEAN_MOTION": 1.00270677, "ECCENTRICITY": 0.00013213, "INCLINATION": 0.0236, "RA_OF_ASC_NODE": 330.0219, "ARG_OF_PERICENTER": 280.9634, "MEAN_ANOMALY": 206.3809, "EPHEMERIS_TYPE": 0, "CLASSIFICATION_TYPE": "U", "NORAD_CAT_ID": 54027, "ELEMENT_SET_NO": 999, "REV_AT_EPOCH": 1202, "BSTAR": 0, "MEAN_MOTION_DOT": 0, "MEAN_MOTION_DDOT": 0}, "tle": {"line1": "1 54027U 22128B   25344.40808551  .00000000  00000+0  00000+0 0  9990", "line2": "2 54027   0.0236 330.0219 0001321 280.9634 206.3809  1.00270677 12021"}}, "geometry": {"type": "Point", "coordinates": [-83.21277172394115, -0.03465426353620542]}}, {"type": "Feature", "properties": {"norad_id": 54243, "name": "GALAXY 31 (G-31)", "group": "intelsat", "lat": -0.004707582824141961, "lon": -75.27631052724152, "alt_km": 35778.253980901514, "timestamp": "2025-12-10T21:43:21.754626+00:00", "meta": {"OBJECT_NAME": "GALAXY 31 (G-31)", "OBJECT_ID": "2022-153A", "EPOCH": "2025-12-10T12:41:54.623616", "MEAN_MOTION": 1.0027233, "ECCENTRICITY": 0.00018592, "INCLINATION": 0.016, "RA_OF_ASC_NODE": 257.0938, "ARG_OF_PERICENTER": 14.4702, "MEAN_ANOMALY": 237.4238, "EPHEMERIS_TYPE": 0, "CLASSIFICATION_TYPE": "U", "NORAD_CAT_ID": 54243, "ELEMENT_SET_NO": 999, "REV_AT_EPOCH": 524, "BSTAR": 0, "MEAN_MOTION_DOT": 1.7e-07, "MEAN_MOTION_DDOT": 0}, "tle": {"line1": "1 54243U 22153A   25344.52910444  .00000017  00000+0  00000+0 0  9994", "line2": "2 54243   0.0160 257.0938 0001859  14.4702 237.4238  1.00272330  5240"}}, "geometry": {"type": "Point", "coordinates": [-75.27631052724152, -0.004707582824141961]}}, {"type": "Feature", "properties": {"norad_id": 54244, "name": "GALAXY 32 (G-32)", "group": "intelsat", "lat": -0.012084014347602425, "lon": -45.294804898116766, "alt_km": 35775.08969493657, "timestamp": "2025-12-10T21:43:21.754637+00:00", "meta": {"OBJECT_NAME": "GALAXY 32 (G-32)", "OBJECT_ID": "2022-153B", "EPOCH": "2025-12-10T02:50:17.145600", "MEAN_MOTION": 1.00270509, "ECCENTRICITY": 0.00027154, "INCLINATION": 0.0093, "RA_OF_ASC_NODE": 341.2572, "ARG_OF_PERICENTER": 328.5466, "MEAN_ANOMALY": 80.861, "EPHEMERIS_TYPE": 0, "CLASSIFICATION_TYPE": "U", "NORAD_CAT_ID": 54244, "ELEMENT_SET_NO": 999, "REV_AT_EPOCH": 1124, "BSTAR": 0, "MEAN_MOTION_DOT": -1.71e-06, "MEAN_MOTION_DDOT": 0}, "tle": {"line1": "1 54244U 22153B   25344.11825400 -.00000171  00000+0  00000+0 0  9999", "line2": "2 54244   0.0093 341.2572 0002715 328.5466  80.8610  1.00270509 11241"}}, "geometry": {"type": "Point", "coordinates": [-45.294804898116766, -0.012084014347602425]}}, {"type": "Feature", "properties": {"norad_id": 54741, "name": "GALAXY 35 (G-35)", "group": "intelsat", "lat": -0.02321782902230376, "lon": -47.35777673175902, "alt_km": 35778.7679448688, "timestamp": "2025-12-10T21:43:21.754649+00:00", "meta": {"OBJECT_NAME": "GALAXY 35 (G-35)", "OBJECT_ID": "2022-170A", "EPOCH": "2025-12-10T04:23:38.620896", "MEAN_MOTION": 1.00271022, "ECCENTRICITY": 0.00026129, "INCLINATION": 0.031, "RA_OF_ASC_NODE": 99.3994, "ARG_OF_PERICENTER": 166.4389, "MEAN_ANOMALY": 146.146, "EPHEMERIS_TYPE": 0, "CLASSIFICATION_TYPE": "U", "NORAD_CAT_ID": 54741, "ELEMENT_SET_NO": 999, "REV_AT_EPOCH": 1099, "BSTAR": 0, "MEAN_MOTION_DOT": -1.59e-06, "MEAN_MOTION_DDOT": 0}, "tle": {"line1": "1 54741U 22170A   25344.18308589 -.00000159  00000+0  00000+0 0  9997", "line2": "2 54741   0.0310  99.3994 0002612 166.4389 146.1460  1.00271022 10994"}}, "geometry": {"type": "Point", "coordinates": [-47.35777673175902, -0.02321782902230376]}}, {"type": "Feature", "properties": {"norad_id": 54742, "name": "GALAXY 36 (G-36)", "group": "intelsat", "lat": -0.019068090292574166, "lon": -43.294988931946556, "alt_km": 35784.3817343809, "timestamp": "2025-12-10T21:43:21.754660+00:00", "meta": {"OBJECT_NAME": "GALAXY 36 (G-36)", "OBJECT_ID": "2022-170B", "EPOCH": "2025-12-10T05:31:38.713152", "MEAN_MOTION": 1.00270681, "ECCENTRICITY": 5.405e-05, "INCLINATION": 0.0118, "RA_OF_ASC_NODE": 35.1013, "ARG_OF_PERICENTER": 255.8985, "MEAN_ANOMALY": 142.1142, "EPHEMERIS_TYPE": 0, "CLASSIFICATION_TYPE": "U", "NORAD_CAT_ID": 54742, "ELEMENT_SET_NO": 999, "REV_AT_EPOCH": 1087, "BSTAR": 0, "MEAN_MOTION_DOT": -1.82e-06, "MEAN_MOTION_DDOT": 0}, "tle": {"line1": "1 54742U 22170B   25344.23030918 -.00000182  00000+0  00000+0 0  9998", "line2": "2 54742   0.0118  35.1013 0000540 255.8985 142.1142  1.00270681 10874"}}, "geometry": {"type": "Point", "coordinates": [-43.294988931946556, -0.019068090292574166]}}, {"type": "Feature", "properties": {"norad_id": 57493, "name": "GALAXY 37 (G-37)", "group": "intelsat", "lat": -0.02630015463766714, "lon": -81.277409347476, "alt_km": 35776.55474515075, "timestamp": "2025-12-10T21:43:21.754672+00:00", "meta": {"OBJECT_NAME": "GALAXY 37 (G-37)", "OBJECT_ID": "2023-112A", "EPOCH": "2025-12-10T11:00:38.718144", "MEAN_MOTION": 1.00272064, "ECCENTRICITY": 0.00022886, "INCLINATION": 0.0097, "RA_OF_ASC_NODE": 0.5935, "ARG_OF_PERICENTER": 264.7649, "MEAN_ANOMALY": 212.2417, "EPHEMERIS_TYPE": 0, "CLASSIFICATION_TYPE": "U", "NORAD_CAT_ID": 57493, "ELEMENT_SET_NO": 999, "REV_AT_EPOCH": 865, "BSTAR": 0, "MEAN_MOTION_DOT": 5.2e-07, "MEAN_MOTION_DDOT": 0}, "tle": {"line1": "1 57493U 23112A   25344.45878146  .00000052  00000+0  00000+0 0  9993", "line2": "2 57493   0.0097   0.5935 0002288 264.7649 212.2417  1.00272064  8656"}}, "geometry": {"type": "Point", "coordinates": [-81.277409347476, -0.02630015463766714]}}]}